{
  "norad_id": 40358,
  "name": "COSMOS 2502",
  "history": [
    {
      "epoch": "2026-03-28T20:41:56.360832Z",
      "apogee_km": 907.3799641819778,
      "perigee_km": 895.3801171114937,
      "latitude_deg": 3.76347323018604e-05,
      "longitude_deg": 66.05846578526935,
      "height_km": 902.8771527677197,
      "semi_major_axis_km": 7279.517040646736,
      "eccentricity": 0.00082422,
      "inclination_deg": 67.1524,
      "raan_deg": 202.8201,
      "arg_perigee_deg": 275.9209,
      "mean_anomaly_deg": 84.0937,
      "mean_motion_rev_day": 13.97812473
    },
    {
      "epoch": "2026-03-29T05:17:06.491328Z",
      "apogee_km": 907.397534361573,
      "perigee_km": 895.3499440881569,
      "latitude_deg": 8.599092309445905e-06,
      "longitude_deg": -63.957177268385784,
      "height_km": 902.8652592840692,
      "semi_major_axis_km": 7279.510739224865,
      "eccentricity": 0.0008275,
      "inclination_deg": 67.1524,
      "raan_deg": 201.9493,
      "arg_perigee_deg": 275.9509,
      "mean_anomaly_deg": 84.0633,
      "mean_motion_rev_day": 13.97814288
    },
    {
      "epoch": "2026-03-30T05:19:35.048352Z",
      "apogee_km": 907.4072583409079,
      "perigee_km": 895.3436503016064,
      "latitude_deg": -1.9654113796668396e-05,
      "longitude_deg": -68.0024157618091,
      "height_km": 902.894034222821,
      "semi_major_axis_km": 7279.512454321257,
      "eccentricity": 0.0008286,
      "inclination_deg": 67.1526,
      "raan_deg": 199.5104,
      "arg_perigee_deg": 275.6848,
      "mean_anomaly_deg": 84.3292,
      "mean_motion_rev_day": 13.97813794
    },
    {
      "epoch": "2026-03-30T07:02:37.082400Z",
      "apogee_km": 907.4064690538999,
      "perigee_km": 895.342425912444,
      "latitude_deg": 7.153938028069782e-05,
      "longitude_deg": -94.00547685673592,
      "height_km": 902.8897462216044,
      "semi_major_axis_km": 7279.511447483172,
      "eccentricity": 0.00082863,
      "inclination_deg": 67.1526,
      "raan_deg": 199.3363,
      "arg_perigee_deg": 275.7159,
      "mean_anomaly_deg": 84.2982,
      "mean_motion_rev_day": 13.97814084
    },
    {
      "epoch": "2026-03-30T13:54:45.312768Z",
      "apogee_km": 907.4164178733545,
      "perigee_km": 895.3413025547479,
      "latitude_deg": -1.81973335517332e-05,
      "longitude_deg": 161.981294792268,
      "height_km": 902.9043453763177,
      "semi_major_axis_km": 7279.515860214051,
      "eccentricity": 0.00082939,
      "inclination_deg": 67.1527,
      "raan_deg": 198.6395,
      "arg_perigee_deg": 275.6136,
      "mean_anomaly_deg": 84.4003,
      "mean_motion_rev_day": 13.97812813
    },
    {
      "epoch": "2026-03-30T22:29:55.497696Z",
      "apogee_km": 907.4184874104612,
      "perigee_km": 895.3392955111258,
      "latitude_deg": 2.0601666816798005e-05,
      "longitude_deg": 31.965353104100288,
      "height_km": 902.910682423072,
      "semi_major_axis_km": 7279.515891460794,
      "eccentricity": 0.00082967,
      "inclination_deg": 67.1527,
      "raan_deg": 197.7686,
      "arg_perigee_deg": 275.5516,
      "mean_anomaly_deg": 84.4623,
      "mean_motion_rev_day": 13.97812804
    },
    {
      "epoch": "2026-03-31T20:49:22.079424Z",
      "apogee_km": 907.4285514193134,
      "perigee_km": 895.3358141528688,
      "latitude_deg": -3.768848121242915e-05,
      "longitude_deg": 53.92345658840402,
      "height_km": 902.9344161257894,
      "semi_major_axis_km": 7279.519182786091,
      "eccentricity": 0.0008306,
      "inclination_deg": 67.1531,
      "raan_deg": 195.5043,
      "arg_perigee_deg": 275.3511,
      "mean_anomaly_deg": 84.6626,
      "mean_motion_rev_day": 13.97811856
    },
    {
      "epoch": "2026-04-01T20:51:50.687424Z",
      "apogee_km": 907.4360845953515,
      "perigee_km": 895.3287878690098,
      "latitude_deg": -5.348256804119104e-06,
      "longitude_deg": 49.878331114478996,
      "height_km": 902.9486086844071,
      "semi_major_axis_km": 7279.519436232181,
      "eccentricity": 0.0008316,
      "inclination_deg": 67.1534,
      "raan_deg": 193.0657,
      "arg_perigee_deg": 275.2124,
      "mean_anomaly_deg": 84.8012,
      "mean_motion_rev_day": 13.97811783
    },
    {
      "epoch": "2026-04-02T19:11:17.202624Z",
      "apogee_km": 907.4388712771606,
      "perigee_km": 895.3199323714043,
      "latitude_deg": 2.9414893896235264e-05,
      "longitude_deg": 71.83645098667897,
      "height_km": 902.9786858034582,
      "semi_major_axis_km": 7279.516401824282,
      "eccentricity": 0.0008324,
      "inclination_deg": 67.1535,
      "raan_deg": 190.8011,
      "arg_perigee_deg": 274.8932,
      "mean_anomaly_deg": 85.1203,
      "mean_motion_rev_day": 13.97812657
    },
    {
      "epoch": "2026-04-02T20:54:19.245312Z",
      "apogee_km": 907.4434200234527,
      "perigee_km": 895.3160363349753,
      "latitude_deg": -1.70326562407825e-06,
      "longitude_deg": 45.83320249711341,
      "height_km": 902.978832625431,
      "semi_major_axis_km": 7279.516728179214,
      "eccentricity": 0.00083298,
      "inclination_deg": 67.1535,
      "raan_deg": 190.6269,
      "arg_perigee_deg": 274.8915,
      "mean_anomaly_deg": 85.1219,
      "mean_motion_rev_day": 13.97812563
    },
    {
      "epoch": "2026-04-03T20:56:47.771232Z",
      "apogee_km": 907.4624732132033,
      "perigee_km": 895.292580826932,
      "latitude_deg": -3.668970843637031e-05,
      "longitude_deg": 41.78839050901339,
      "height_km": 902.9971418863433,
      "semi_major_axis_km": 7279.514527020067,
      "eccentricity": 0.0008359,
      "inclination_deg": 67.1537,
      "raan_deg": 188.1883,
      "arg_perigee_deg": 274.6808,
      "mean_anomaly_deg": 85.3322,
      "mean_motion_rev_day": 13.97813197
    },
    {
      "epoch": "2026-04-04T07:14:59.928000Z",
      "apogee_km": 907.4615578889952,
      "perigee_km": 895.2817751685061,
      "latitude_deg": 3.9318712274752375e-05,
      "longitude_deg": -114.23047578505945,
      "height_km": 902.9944045685977,
      "semi_major_axis_km": 7279.50866652875,
      "eccentricity": 0.00083658,
      "inclination_deg": 67.1538,
      "raan_deg": 187.1432,
      "arg_perigee_deg": 274.6476,
      "mean_anomaly_deg": 85.3654,
      "mean_motion_rev_day": 13.97814885
    },
    {
      "epoch": "2026-04-05T14:09:36.579744Z",
      "apogee_km": 907.4990015431895,
      "perigee_km": 895.2494768005854,
      "latitude_deg": -6.713720490870031e-05,
      "longitude_deg": 137.71172625092285,
      "height_km": 903.025064003412,
      "semi_major_axis_km": 7279.511239171887,
      "eccentricity": 0.00084137,
      "inclination_deg": 67.1536,
      "raan_deg": 184.0076,
      "arg_perigee_deg": 274.3575,
      "mean_anomaly_deg": 85.6548,
      "mean_motion_rev_day": 13.97814144
    },
    {
      "epoch": "2026-04-05T21:01:44.695200Z",
      "apogee_km": 907.4911759674669,
      "perigee_km": 895.2557747604751,
      "latitude_deg": 2.3437633893673876e-05,
      "longitude_deg": 33.6989527387214,
      "height_km": 903.0321070240208,
      "semi_major_axis_km": 7279.510475363971,
      "eccentricity": 0.0008404,
      "inclination_deg": 67.1536,
      "raan_deg": 183.3107,
      "arg_perigee_deg": 274.2892,
      "mean_anomaly_deg": 85.7233,
      "mean_motion_rev_day": 13.97814364
    },
    {
      "epoch": "2026-04-06T05:36:54.829152Z",
      "apogee_km": 907.4970455392704,
      "perigee_km": 895.2419963112934,
      "latitude_deg": 4.804328840525448e-05,
      "longitude_deg": -96.31668313266317,
      "height_km": 903.0041357129953,
      "semi_major_axis_km": 7279.506520925282,
      "eccentricity": 0.00084175,
      "inclination_deg": 67.1534,
      "raan_deg": 182.4399,
      "arg_perigee_deg": 274.5074,
      "mean_anomaly_deg": 85.505,
      "mean_motion_rev_day": 13.97815503
    },
    {
      "epoch": "2026-04-07T17:40:37.652160Z",
      "apogee_km": 907.5082664119627,
      "perigee_km": 895.2481069345667,
      "latitude_deg": -2.4939152238276875e-05,
      "longitude_deg": 77.61584360536168,
      "height_km": 903.0838901986527,
      "semi_major_axis_km": 7279.515186673264,
      "eccentricity": 0.0008421,
      "inclination_deg": 67.153,
      "raan_deg": 178.7819,
      "arg_perigee_deg": 273.8391,
      "mean_anomaly_deg": 86.1731,
      "mean_motion_rev_day": 13.97813007
    },
    {
      "epoch": "2026-04-08T14:17:02.082336Z",
      "apogee_km": 907.5170346489149,
      "perigee_km": 895.2378041359952,
      "latitude_deg": 4.342535427170742e-05,
      "longitude_deg": 125.57748661209352,
      "height_km": 903.1059048771922,
      "semi_major_axis_km": 7279.514419392454,
      "eccentricity": 0.00084341,
      "inclination_deg": 67.1527,
      "raan_deg": 176.6916,
      "arg_perigee_deg": 273.6199,
      "mean_anomaly_deg": 86.3922,
      "mean_motion_rev_day": 13.97813228
    },
    {
      "epoch": "2026-04-09T19:28:36.613632Z",
      "apogee_km": 907.5132751075444,
      "perigee_km": 895.2341963984763,
      "latitude_deg": -2.6045286562168945e-05,
      "longitude_deg": 43.52336264141035,
      "height_km": 903.1297287065125,
      "semi_major_axis_km": 7279.5107357530105,
      "eccentricity": 0.0008434,
      "inclination_deg": 67.1524,
      "raan_deg": 173.7303,
      "arg_perigee_deg": 273.3626,
      "mean_anomaly_deg": 86.6494,
      "mean_motion_rev_day": 13.97814289
    },
    {
      "epoch": "2026-04-10T12:38:56.927328Z",
      "apogee_km": 907.5262496256073,
      "perigee_km": 895.218055550411,
      "latitude_deg": 9.01402859300903e-06,
      "longitude_deg": 143.4914934445355,
      "height_km": 903.1373753764688,
      "semi_major_axis_km": 7279.509152588009,
      "eccentricity": 0.0008454,
      "inclination_deg": 67.1524,
      "raan_deg": 171.9883,
      "arg_perigee_deg": 273.2686,
      "mean_anomaly_deg": 86.7432,
      "mean_motion_rev_day": 13.97814745
    }
  ]
}